NORAD_CAT_ID,OBJECT_NAME,OBJECT_TYPE,EPOCH,MEAN_MOTION,ECCENTRICITY,INCLINATION,RA_OF_ASC_NODE,ARG_OF_PERICENTER,MEAN_ANOMALY,BSTAR,MEAN_MOTION_DOT,MEAN_MOTION_DDOT,TLE_LINE0,TLE_LINE1,TLE_LINE2,SEMIMAJOR_AXIS,PERIOD,APOGEE,PERIGEE,DECAYED
49167.0,STARLINK-3054,PAYLOAD,2022-07-13 19:10:21,14.98336428,0.0003434,69.999,60.1842,255.8238,104.254,6.4947e-05,6.82e-06,0.0,0 STARLINK-3054,1 49167U 21082AP  22194.79886360  .00000682  00000-0  64947-4 0  9995,2 49167  69.9990  60.1842 0003434 255.8238 104.2540 14.98336428 47239,6950.1730000000025,96.107,574.425,569.651,0.0
49167.0,STARLINK-3054,PAYLOAD,2022-07-14 01:34:54,14.98326008,0.0003523,69.9994,59.5121,250.9304,109.1473,-9.4214e-05,-1.217e-05,0.0,0 STARLINK-3054,1 49167U 21082AP  22195.06591358 -.00001217  00000-0 -94214-4 0  9993,2 49167  69.9994  59.5121 0003523 250.9304 109.1473 14.98326008 47270,6950.205,96.107,574.519,569.622,0.0
49167.0,STARLINK-3054,PAYLOAD,2022-07-14 07:59:27,14.98327294,0.0003521,69.9992,58.8377,254.4654,105.6117,-8.565299999999999e-05,-1.115e-05,0.0,0 STARLINK-3054,1 49167U 21082AP  22195.33295245 -.00001115  00000-0 -85653-4 0  9993,2 49167  69.9992  58.8377 0003521 254.4654 105.6117 14.98327294 47306,6950.201,96.107,574.513,569.619,0.0
49167.0,STARLINK-3054,PAYLOAD,2022-07-14 20:48:31,14.98324465,0.0003371,69.9997,57.49100000000001,257.1226,102.9557,1.3688e-05,7e-07,0.0,0 STARLINK-3054,1 49167U 21082AP  22195.86703396  .00000070  00000-0  13688-4 0  9998,2 49167  69.9997  57.4910 0003371 257.1226 102.9557 14.98324465 47380,6950.21,96.107,574.418,569.732,0.0
49167.0,STARLINK-3054,PAYLOAD,2022-07-15 01:36:55,14.98328014,0.0003213,69.9998,56.9854,257.1498,102.9302,6.7168e-05,7.08e-06,0.0,0 STARLINK-3054,1 49167U 21082AP  22196.06731140  .00000708  00000-0  67168-4 0  9999,2 49167  69.9998  56.9854 0003213 257.1498 102.9302 14.98328014 47425,6950.199000000001,96.107,574.297,569.831,0.0
49167.0,STARLINK-3054,PAYLOAD,2022-07-15 08:01:27,14.98330573,0.0003384,69.9999,56.3119,256.535,103.5431,4.9678e-05,5e-06,0.0,0 STARLINK-3054,1 49167U 21082AP  22196.33434990  .00000500  00000-0  49678-4 0  9998,2 49167  69.9999  56.3119 0003384 256.5350 103.5431 14.98330573 47459,6950.191,96.107,574.408,569.7040000000002,0.0
49167.0,STARLINK-3054,PAYLOAD,2022-07-15 20:50:36,14.98113926,0.0002526,69.9998,54.9657,232.549,127.5439,0.0040409,0.00048184,0.0,0 STARLINK-3054,1 49167U 21082AP  22196.86847541  .00048184  00000-0  40409-2 0  9997,2 49167  69.9998  54.9657 0002526 232.5490 127.5439 14.98113926 47540,6950.861,96.121,574.482,570.97,0.0
49167.0,STARLINK-3054,PAYLOAD,2022-07-16 01:38:55,14.98340523,0.0003244,69.9993,54.4602,262.7514,97.3277,0.00011104,1.232e-05,0.0,0 STARLINK-3054,1 49167U 21082AP  22197.06870262  .00001232  00000-0  11104-3 0  9990,2 49167  69.9993  54.4602 0003244 262.7514  97.3277 14.98340523 47572,6950.16,96.106,574.28,569.771,0.0
49167.0,STARLINK-3054,PAYLOAD,2022-07-16 08:03:28,14.98334893,0.0003297,69.9996,53.7869,252.5967,107.4831,0.00023717,2.738e-05,0.0,0 STARLINK-3054,1 49167U 21082AP  22197.33574283  .00002738  00000-0  23717-3 0  9999,2 49167  69.9996  53.7869 0003297 252.5967 107.4831 14.98334893 47605,6950.178000000001,96.107,574.3340000000002,569.751,0.0
49167.0,STARLINK-3054,PAYLOAD,2022-07-16 20:52:33,14.98328353,0.0003265,69.9998,52.4404,255.6879,104.3918,7.562e-05,8.09e-06,0.0,0 STARLINK-3054,1 49167U 21082AP  22197.86982985  .00000809  00000-0  75620-4 0  9997,2 49167  69.9998  52.4404 0003265 255.6879 104.3918 14.98328353 47694,6950.198,96.107,574.332,569.794,0.0
49167.0,STARLINK-3054,PAYLOAD,2022-07-17 12:53:53,14.9833617,0.0003187,69.9999,50.7573,255.3205,104.7601,0.00012455,1.394e-05,0.0,0 STARLINK-3054,1 49167U 21082AP  22198.53742490  .00001394  00000-0  12455-3 0  9993,2 49167  69.9999  50.7573 0003187 255.3205 104.7601 14.98336170 47785,6950.174,96.107,574.254,569.8240000000002,0.0
49167.0,STARLINK-3054,PAYLOAD,2022-07-17 16:06:09,14.983387400000002,0.0003202,70.0011,50.4205,255.9684,104.1119,0.00010657,1.179e-05,0.0,0 STARLINK-3054,1 49167U 21082AP  22198.67094213  .00001179  00000-0  10657-3 0  9994,2 49167  70.0011  50.4205 0003202 255.9684 104.1119 14.98338740 47814,6950.166,96.106,574.256,569.805,0.0
49167.0,STARLINK-3054,PAYLOAD,2022-07-17 20:54:33,14.98335645,0.000318,70.0011,49.9153,255.5932,104.4874,3.6884e-05,3.47e-06,0.0,0 STARLINK-3054,1 49167U 21082AP  22198.87122316  .00000347  00000-0  36884-4 0  9999,2 49167  70.0011  49.9153 0003180 255.5932 104.4874 14.98335645 47830,6950.175,96.107,574.251,569.83,0.0
49167.0,STARLINK-3054,PAYLOAD,2022-07-18 00:06:50,14.98329084,0.0003261,70.0006,49.5778,258.1439,101.9354,-8.4786e-05,-1.105e-05,0.0,0 STARLINK-3054,1 49167U 21082AP  22199.00474644 -.00001105  00000-0 -84786-4 0  9998,2 49167  70.0006  49.5778 0003261 258.1439 101.9354 14.98329084 47862,6950.196,96.107,574.327,569.794,0.0
49167.0,STARLINK-3054,PAYLOAD,2022-07-18 20:56:35,14.98327239,0.0003212,69.9997,47.3907,257.3071,102.7729,0.0001161,1.292e-05,0.0,0 STARLINK-3054,1 49167U 21082AP  22199.87263102  .00001292  00000-0  11610-3 0  9998,2 49167  69.9997  47.3907 0003212 257.3071 102.7729 14.98327239 47985,6950.201,96.107,574.299,569.8340000000002,0.0
49167.0,STARLINK-3054,PAYLOAD,2022-07-19 03:21:07,14.98331041,0.0003177,69.9999,46.7173,255.1438,104.9369,0.00012321,1.377e-05,0.0,0 STARLINK-3054,1 49167U 21082AP  22200.13966846  .00001377  00000-0  12321-3 0  9999,2 49167  69.9999  46.7173 0003177 255.1438 104.9369 14.98331041 48035,6950.19,96.107,574.263,569.847,0.0
49167.0,STARLINK-3054,PAYLOAD,2022-07-19 06:33:23,14.98331734,0.0003187,69.9999,46.3807,254.8628,105.2178,0.000106,1.172e-05,0.0,0 STARLINK-3054,1 49167U 21082AP  22200.27318811  .00001172  00000-0  10600-3 0  9998,2 49167  69.9999  46.3807 0003187 254.8628 105.2178 14.98331734 48045,6950.188,96.107,574.268,569.8380000000002,0.0
49167.0,STARLINK-3054,PAYLOAD,2022-07-19 20:58:35,14.98339186,0.0003047,69.9999,44.8658,253.8194,106.263,0.00012494,1.398e-05,0.0,0 STARLINK-3054,1 49167U 21082AP  22200.87402267  .00001398  00000-0  12494-3 0  9996,2 49167  69.9999  44.8658 0003047 253.8194 106.2630 14.98339186 48137,6950.1640000000025,96.106,574.1469999999998,569.9119999999998,0.0
49167.0,STARLINK-3054,PAYLOAD,2022-07-20 00:10:51,14.98340284,0.0002948,69.9999,44.529,251.8581,108.2257,0.00016136,1.833e-05,0.0,0 STARLINK-3054,1 49167U 21082AP  22201.00754126  .00001833  00000-0  16136-3 0  9997,2 49167  69.9999  44.5290 0002948 251.8581 108.2257 14.98340284 48164,6950.161,96.106,574.075,569.977,0.0
49167.0,STARLINK-3054,PAYLOAD,2022-07-20 14:36:03,14.98344421,0.0003072,70.0014,43.0137,253.6246,106.4575,0.00034893,4.074e-05,0.0,0 STARLINK-3054,1 49167U 21082AP  22201.60837911  .00004074  00000-0  34893-3 0  9997,2 49167  70.0014  43.0137 0003072 253.6246 106.4575 14.98344421 48245,6950.148,96.106,574.148,569.878,0.0
49167.0,STARLINK-3054,PAYLOAD,2022-07-20 21:00:35,14.98351019,0.0003073,70.0019,42.3407,254.0179,106.0641,0.00044643,5.241e-05,0.0,0 STARLINK-3054,1 49167U 21082AP  22201.87541511  .00005241  00000-0  44643-3 0  9995,2 49167  70.0019  42.3407 0003073 254.0179 106.0641 14.98351019 48288,6950.128000000002,96.106,574.129,569.857,0.0
49167.0,STARLINK-3054,PAYLOAD,2022-07-21 00:12:52,14.98343685,0.0003443999999999,70.001,42.0043,255.4106,104.6671,0.00020721,2.381e-05,0.0,0 STARLINK-3054,1 49167U 21082AP  22202.00893593  .00002381  00000-0  20721-3 0  9994,2 49167  70.0010  42.0043 0003444 255.4106 104.6671 14.98343685 48310,6950.151,96.106,574.409,569.622,0.0
49167.0,STARLINK-3054,PAYLOAD,2022-07-21 06:37:24,14.983307,0.0003494,70.0007,41.3304,253.1881,106.8895,-0.0001163,-1.481e-05,0.0,0 STARLINK-3054,1 49167U 21082AP  22202.27597966 -.00001481  00000-0 -11630-3 0  9999,2 49167  70.0007  41.3304 0003494 253.1881 106.8895 14.98330700 48347,6950.191,96.107,574.484,569.627,0.0
49167.0,STARLINK-3054,PAYLOAD,2022-07-21 17:50:21,14.98325066,0.0003053,70.0015,40.1525,253.7158,106.3666,-0.00014587,-1.833e-05,0.0,0 STARLINK-3054,1 49167U 21082AP  22202.74330658 -.00001833  00000-0 -14587-3 0  9999,2 49167  70.0015  40.1525 0003053 253.7158 106.3666 14.98325066 48421,6950.208000000001,96.107,574.195,569.951,0.0
49167.0,STARLINK-3054,PAYLOAD,2022-07-21 19:26:29,14.98325843,0.000307,70.0016,39.9843,253.5272,106.555,-0.00014934,-1.874e-05,0.0,0 STARLINK-3054,1 49167U 21082AP  22202.81006627 -.00001874  00000-0 -14934-3 0  9994,2 49167  70.0016  39.9843 0003070 253.5272 106.5550 14.98325843 48422,6950.206,96.107,574.2040000000002,569.937,0.0
49167.0,STARLINK-3054,PAYLOAD,2022-07-22 01:51:02,14.98325276,0.0003138,70.0015,39.3109,254.1038,105.9776,-0.0001358,-1.713e-05,0.0,0 STARLINK-3054,1 49167U 21082AP  22203.07710738 -.00001713  00000-0 -13580-3 0  9996,2 49167  70.0015  39.3109 0003138 254.1038 105.9776 14.98325276 48469,6950.206999999999,96.107,574.253,569.8919999999998,0.0
49167.0,STARLINK-3054,PAYLOAD,2022-07-22 19:28:30,14.98328348,0.0003191999999999,70.0016,37.4596,253.8517,106.2291,-3.6439e-05,-5.28e-06,0.0,0 STARLINK-3054,1 49167U 21082AP  22203.81146818 -.00000528  00000-0 -36439-4 0  9992,2 49167  70.0016  37.4596 0003192 253.8517 106.2291 14.98328348 48578,6950.198,96.107,574.2819999999998,569.844,0.0
49167.0,STARLINK-3054,PAYLOAD,2022-07-23 01:53:03,14.98330616,0.0003225,70.0001,36.7857,257.9271,102.1527,3.477e-06,-5.2e-07,0.0,0 STARLINK-3054,1 49167U 21082AP  22204.07850925 -.00000052  00000-0  34770-5 0  9990,2 49167  70.0001  36.7857 0003225 257.9271 102.1527 14.98330616 48627,6950.191,96.107,574.297,569.815,0.0
49167.0,STARLINK-3054,PAYLOAD,2022-07-23 13:05:59,14.98324376,0.0003237,70.0,35.6076,253.86,106.2203,0.00023819,2.75e-05,0.0,0 STARLINK-3054,1 49167U 21082AP  22204.54583083  .00002750  00000-0  23819-3 0  9996,2 49167  70.0000  35.6076 0003237 253.8600 106.2203 14.98324376 48689,6950.21,96.107,574.325,569.825,0.0
